[{"OBJECT_NAME":"STARLINK-32790","OBJECT_ID":"2025-034V","EPOCH":"2026-03-09T21:23:00.497472","MEAN_MOTION":15.30199536,"ECCENTRICITY":8.896e-5,"INCLINATION":53.1569,"RA_OF_ASC_NODE":257.4706,"ARG_OF_PERICENTER":103.4612,"MEAN_ANOMALY":256.6488,"EPHEMERIS_TYPE":0,"CLASSIFICATION_TYPE":"U","NORAD_CAT_ID":63048,"ELEMENT_SET_NO":999,"REV_AT_EPOCH":5911,"BSTAR":0.0011224324,"MEAN_MOTION_DOT":0.00033031,"MEAN_MOTION_DDOT":0},{"OBJECT_NAME":"239ALFEROV (RS61S)","OBJECT_ID":"2025-155F","EPOCH":"2026-03-09T21:46:33.382848","MEAN_MOTION":15.29933217,"ECCENTRICITY":0.00084878,"INCLINATION":97.4469,"RA_OF_ASC_NODE":37.6373,"ARG_OF_PERICENTER":151.5904,"MEAN_ANOMALY":208.58,"EPHEMERIS_TYPE":0,"CLASSIFICATION_TYPE":"U","NORAD_CAT_ID":64881,"ELEMENT_SET_NO":999,"REV_AT_EPOCH":6561,"BSTAR":0.00067233359,"MEAN_MOTION_DOT":0.00019457,"MEAN_MOTION_DDOT":0}]
